ONEWEB-0220             
1 48232U 21031Y   23293.51786143  .00000194  00000+0  48990-3 0  9996
2 48232  87.8951 122.9421 0001316  97.2284 262.8996 13.14501386120886
ONEWEB-0165             
1 48233U 21031Z   23293.47133891 -.00000081  00000+0 -25386-3 0  9999
2 48233  87.8945 122.9620 0001398  88.0553 272.0737 13.14500836120838
ONEWEB-0203             
1 48235U 21031AB  23293.51998795  .00000350  00000+0  91018-3 0  9990
2 48235  87.8946 122.9235 0001728  73.8396 286.2924 13.14503164120750
ONEWEB-0197             
1 48236U 21031AC  23293.50714274  .00000186  00000+0  46723-3 0  9998
2 48236  87.8941 122.9344 0001747  90.1092 270.0238 13.14505343120663
ONEWEB-0194             
1 48237U 21031AD  23293.47557578 -.00000215  00000+0 -61445-3 0  9990
2 48237  87.8944 122.9302 0001864  75.1996 284.9341 13.14503972120831
ONEWEB-0193             
1 48238U 21031AE  23293.49251996  .00005295  00000+0  14245-1 0  9993
2 48238  87.8945 122.9365 0001413  78.0161 282.1127 13.14479336120780
ONEWEB-0191             
1 48239U 21031AF  23293.50307142  .00000042  00000+0  78049-4 0  9991
2 48239  87.8953 122.9166 0001603  79.9021 280.2289 13.14504245120646
